{
  "type": "FeatureCollection",
  "features": [
    {
      "type": "Feature",
      "properties": {
        "norad_id": 32214,
        "name": "FENGYUN 1C DEB",
        "group": "fengyun-1c-debris",
        "lat": -65.60201920258096,
        "lon": 165.54442366511034,
        "alt_km": 1069.8468394499241,
        "timestamp": "2025-12-06T07:31:40.522904+00:00",
        "meta_object_name": "FENGYUN 1C DEB",
        "meta_object_id": "1999-025CVL",
        "meta_epoch": "2025-12-04T07:48:51.081408",
        "meta_mean_motion": 13.90393149,
        "meta_eccentricity": 0.0188912,
        "meta_inclination": 99.044,
        "meta_ra_of_asc_node": 4.1667,
        "meta_arg_of_pericenter": 62.1473,
        "meta_mean_anomaly": 319.5296,
        "meta_ephemeris_type": 0,
        "meta_classification_type": "U",
        "meta_norad_cat_id": 32214,
        "meta_element_set_no": 999,
        "meta_rev_at_epoch": 62305,
        "meta_bstar": 0.0094539,
        "meta_mean_motion_dot": 0.00013536,
        "meta_mean_motion_ddot": 0,
        "tle_line1": "1 32214U 99025CVL 25338.32559122  .00013536  00000+0  94539-2 0  9996",
        "tle_line2": "2 32214  99.0440   4.1667 0188912  62.1473 319.5296 13.90393149623059"
      },
      "geometry": {
        "type": "Point",
        "coordinates": [
          165.54442366511034,
          -65.60201920258096
        ]
      }
    },
    {
      "type": "Feature",
      "properties": {
        "norad_id": 32218,
        "name": "FENGYUN 1C DEB",
        "group": "fengyun-1c-debris",
        "lat": 55.77286325553644,
        "lon": 160.64354286161287,
        "alt_km": 663.8293080940293,
        "timestamp": "2025-12-06T07:31:40.522916+00:00",
        "meta_object_name": "FENGYUN 1C DEB",
        "meta_object_id": "1999-025CVQ",
        "meta_epoch": "2025-12-05T07:20:54.956832",
        "meta_mean_motion": 14.55407652,
        "meta_eccentricity": 0.00631435,
        "meta_inclination": 98.8114,
        "meta_ra_of_asc_node": 172.7613,
        "meta_arg_of_pericenter": 89.921,
        "meta_mean_anomaly": 91.7174,
        "meta_ephemeris_type": 0,
        "meta_classification_type": "U",
        "meta_norad_cat_id": 32218,
        "meta_element_set_no": 999,
        "meta_rev_at_epoch": 96124,
        "meta_bstar": 0.0014749767,
        "meta_mean_motion_dot": 6.534e-05,
        "meta_mean_motion_ddot": 0,
        "tle_line1": "1 32218U 99025CVQ 25339.30619163  .00006534  00000+0  14750-2 0  9998",
        "tle_line2": "2 32218  98.8114 172.7613 0063143  89.9210  91.7174 14.55407652961242"
      },
      "geometry": {
        "type": "Point",
        "coordinates": [
          160.64354286161287,
          55.77286325553644
        ]
      }
    },
    {
      "type": "Feature",
      "properties": {
        "norad_id": 32221,
        "name": "FENGYUN 1C DEB",
        "group": "fengyun-1c-debris",
        "lat": -52.113489493706254,
        "lon": -61.134935604067735,
        "alt_km": 663.3301549917269,
        "timestamp": "2025-12-06T07:31:40.522926+00:00",
        "meta_object_name": "FENGYUN 1C DEB",
        "meta_object_id": "1999-025CVT",
        "meta_epoch": "2025-12-04T05:04:54.387840",
        "meta_mean_motion": 14.58634002,
        "meta_eccentricity": 0.014659,
        "meta_inclination": 98.565,
        "meta_ra_of_asc_node": 127.8667,
        "meta_arg_of_pericenter": 171.9385,
        "meta_mean_anomaly": 188.4219,
        "meta_ephemeris_type": 0,
        "meta_classification_type": "U",
        "meta_norad_cat_id": 32221,
        "meta_element_set_no": 999,
        "meta_rev_at_epoch": 97073,
        "meta_bstar": 0.00087979,
        "meta_mean_motion_dot": 4.702e-05,
        "meta_mean_motion_ddot": 0,
        "tle_line1": "1 32221U 99025CVT 25338.21174060  .00004702  00000+0  87979-3 0  9992",
        "tle_line2": "2 32221  98.5650 127.8667 0146590 171.9385 188.4219 14.58634002970733"
      },
      "geometry": {
        "type": "Point",
        "coordinates": [
          -61.134935604067735,
          -52.113489493706254
        ]
      }
    },
    {
      "type": "Feature",
      "properties": {
        "norad_id": 32223,
        "name": "FENGYUN 1C DEB",
        "group": "fengyun-1c-debris",
        "lat": -80.89663742148589,
        "lon": 135.58829358909006,
        "alt_km": 815.3311887873024,
        "timestamp": "2025-12-06T07:31:40.522936+00:00",
        "meta_object_name": "FENGYUN 1C DEB",
        "meta_object_id": "1999-025CVV",
        "meta_epoch": "2025-12-03T10:55:28.371072",
        "meta_mean_motion": 14.20810685,
        "meta_eccentricity": 0.00466677,
        "meta_inclination": 98.8397,
        "meta_ra_of_asc_node": 56.5179,
        "meta_arg_of_pericenter": 345.0061,
        "meta_mean_anomaly": 74.8726,
        "meta_ephemeris_type": 0,
        "meta_classification_type": "U",
        "meta_norad_cat_id": 32223,
        "meta_element_set_no": 999,
        "meta_rev_at_epoch": 64092,
        "meta_bstar": 0.0018929576,
        "meta_mean_motion_dot": 4.091e-05,
        "meta_mean_motion_ddot": 0,
        "tle_line1": "1 32223U 99025CVV 25337.45518948  .00004091  00000+0  18930-2 0  9997",
        "tle_line2": "2 32223  98.8397  56.5179 0046667 345.0061  74.8726 14.20810685640929"
      },
      "geometry": {
        "type": "Point",
        "coordinates": [
          135.58829358909006,
          -80.89663742148589
        ]
      }
    },
    {
      "type": "Feature",
      "properties": {
        "norad_id": 32224,
        "name": "FENGYUN 1C DEB",
        "group": "fengyun-1c-debris",
        "lat": 77.00849951904866,
        "lon": -112.20568760469949,
        "alt_km": 716.0496562890257,
        "timestamp": "2025-12-06T07:31:40.522947+00:00",
        "meta_object_name": "FENGYUN 1C DEB",
        "meta_object_id": "1999-025CVW",
        "meta_epoch": "2025-12-04T03:14:42.410976",
        "meta_mean_motion": 14.33996543,
        "meta_eccentricity": 0.00771305,
        "meta_inclination": 98.9826,
        "meta_ra_of_asc_node": 288.8151,
        "meta_arg_of_pericenter": 91.3295,
        "meta_mean_anomaly": 269.6726,
        "meta_ephemeris_type": 0,
        "meta_classification_type": "U",
        "meta_norad_cat_id": 32224,
        "meta_element_set_no": 999,
        "meta_rev_at_epoch": 95600,
        "meta_bstar": 0.00054152271,
        "meta_mean_motion_dot": 1.516e-05,
        "meta_mean_motion_ddot": 0,
        "tle_line1": "1 32224U 99025CVW 25338.13521309  .00001516  00000+0  54152-3 0  9995",
        "tle_line2": "2 32224  98.9826 288.8151 0077130  91.3295 269.6726 14.33996543956002"
      },
      "geometry": {
        "type": "Point",
        "coordinates": [
          -112.20568760469949,
          77.00849951904866
        ]
      }
    },
    {
      "type": "Feature",
      "properties": {
        "norad_id": 32225,
        "name": "FENGYUN 1C DEB",
        "group": "fengyun-1c-debris",
        "lat": 19.79854762111623,
        "lon": -147.81823853886848,
        "alt_km": 826.7400964764602,
        "timestamp": "2025-12-06T07:31:40.522956+00:00",
        "meta_object_name": "FENGYUN 1C DEB",
        "meta_object_id": "1999-025CVX",
        "meta_epoch": "2025-12-04T22:28:43.601664",
        "meta_mean_motion": 14.13034957,
        "meta_eccentricity": 0.0071434,
        "meta_inclination": 99.0936,
        "meta_ra_of_asc_node": 27.4781,
        "meta_arg_of_pericenter": 228.5304,
        "meta_mean_anomaly": 130.972,
        "meta_ephemeris_type": 0,
        "meta_classification_type": "U",
        "meta_norad_cat_id": 32225,
        "meta_element_set_no": 999,
        "meta_rev_at_epoch": 68006,
        "meta_bstar": 0.00042469,
        "meta_mean_motion_dot": 7.65e-06,
        "meta_mean_motion_ddot": 0,
        "tle_line1": "1 32225U 99025CVX 25338.93661576  .00000765  00000+0  42469-3 0  9998",
        "tle_line2": "2 32225  99.0936  27.4781 0071434 228.5304 130.9720 14.13034957680063"
      },
      "geometry": {
        "type": "Point",
        "coordinates": [
          -147.81823853886848,
          19.79854762111623
        ]
      }
    },
    {
      "type": "Feature",
      "properties": {
        "norad_id": 32230,
        "name": "FENGYUN 1C DEB",
        "group": "fengyun-1c-debris",
        "lat": 77.61479199503485,
        "lon": 84.18655823156848,
        "alt_km": 666.5745438292997,
        "timestamp": "2025-12-06T07:31:40.522966+00:00",
        "meta_object_name": "FENGYUN 1C DEB",
        "meta_object_id": "1999-025CWC",
        "meta_epoch": "2025-11-30T09:24:55.537344",
        "meta_mean_motion": 14.55588472,
        "meta_eccentricity": 0.00526929,
        "meta_inclination": 98.8709,
        "meta_ra_of_asc_node": 123.2328,
        "meta_arg_of_pericenter": 127.3302,
        "meta_mean_anomaly": 261.6517,
        "meta_ephemeris_type": 0,
        "meta_classification_type": "U",
        "meta_norad_cat_id": 32230,
        "meta_element_set_no": 999,
        "meta_rev_at_epoch": 60490,
        "meta_bstar": 0.0036213421,
        "meta_mean_motion_dot": 0.00016074,
        "meta_mean_motion_ddot": 0,
        "tle_line1": "1 32230U 99025CWC 25334.39230946  .00016074  00000+0  36213-2 0  9992",
        "tle_line2": "2 32230  98.8709 123.2328 0052692 127.3302 261.6517 14.55588472604902"
      },
      "geometry": {
        "type": "Point",
        "coordinates": [
          84.18655823156848,
          77.61479199503485
        ]
      }
    }
  ]
}